NAVSTAR 46 (USA 145)    
1 25933U 99055A   26191.31127204 -.00000054  00000+0  00000+0 0  9997
2 25933  51.4414 294.4566 0106465 176.8340 242.0656  2.00560976196040
NAVSTAR 48 (USA 151)    
1 26407U 00040A   26191.26190744  .00000110  00000+0  00000+0 0  9995
2 26407  54.8491 214.2457 0120597 302.6821  81.8231  2.00557788190413
NAVSTAR 49 (USA 154)    
1 26605U 00071A   26190.60700900 -.00000030  00000+0  00000+0 0  9999
2 26605  55.6376  94.0687 0174160 266.8793 290.0044  2.00564381187966
NAVSTAR 51 (USA 166)    
1 27663U 03005A   26191.15416856  .00000110  00000+0  00000+0 0  9997
2 27663  54.8796 214.0562 0148192  53.1533  29.7363  2.00559273171776
NAVSTAR 52 (USA 168)    
1 27704U 03010A   26191.26564958 -.00000085  00000+0  00000+0 0  9990
2 27704  54.7982 324.3180 0004544 249.0585 140.9414  1.91454746170370
NAVSTAR 53 (USA 175)    
1 28129U 03058A   26190.88374109 -.00000060  00000+0  00000+0 0  9991
2 28129  55.0405  22.4277 0001169 340.9086  19.1320  1.92678357164908
NAVSTAR 54 (USA 177)    
1 28190U 04009A   26191.29724102 -.00000012  00000+0  00000+0 0  9991
2 28190  54.8105 274.7528 0117019 174.1119 164.7266  2.00553861163409
NAVSTAR 55 (USA 178)    
1 28361U 04023A   26190.32819171 -.00000035  00000+0  00000+0 0  9996
2 28361  54.8786  85.8170 0159544 302.6097 237.1383  2.00557902161481
NAVSTAR 56 (USA 180)    
1 28474U 04045A   26191.26664860 -.00000080  00000+0  00000+0 0  9992
2 28474  55.1214 323.9670 0170095 316.9414  64.8542  2.00556809158890
NAVSTAR 57 (USA 183)    
1 28874U 05038A   26191.29576271 -.00000006  00000+0  00000+0 0  9998
2 28874  54.8594 272.2441 0128168 296.3525  70.9409  2.00564004152307
NAVSTAR 58 (USA 190)    
1 29486U 06042A   26190.11781788  .00000066  00000+0  00000+0 0  9990
2 29486  54.7126 150.4682 0107015  54.9780  80.6146  2.00568543144837
